{
  "type": "FeatureCollection",
  "name": "eroded_zones",
  "features": [
    {
      "type": "Feature",
      "properties": {
        "zone_type": "eroded",
        "label": "Eroded Area"
      },
      "geometry": {
        "type": "Polygon",
        "coordinates": [
          [
            [
              122.625374,
              10.779863
            ],
            [
              122.625386,
              10.779863
            ],
            [
              122.625404,
              10.779869
            ],
            [
              122.625422,
              10.779875
            ],
            [
              122.625441,
              10.779881
            ],
            [
              122.625452,
              10.779886
            ],
            [
              122.625468,
              10.779887
            ],
            [
              122.625488,
              10.779879
            ],
            [
              122.625499,
              10.779865
            ],
            [
              122.625506,
              10.77984
            ],
            [
              122.625449,
              10.779812
            ],
            [
              122.625402,
              10.779813
            ],
            [
              122.625374,
              10.779813
            ],
            [
              122.625374,
              10.779863
            ]
          ]
        ]
      }
    },
    {
      "type": "Feature",
      "properties": {
        "zone_type": "eroded",
        "label": "Eroded Area"
      },
      "geometry": {
        "type": "Polygon",
        "coordinates": [
          [
            [
              122.625398,
              10.779742
            ],
            [
              122.625527,
              10.779711
            ],
            [
              122.626018,
              10.779883
            ],
            [
              122.626036,
              10.779929
            ],
            [
              122.625755,
              10.77989
            ],
            [
              122.625398,
              10.779742
            ]
          ]
        ]
      }
    },
    {
      "type": "Feature",
      "properties": {
        "zone_type": "eroded",
        "label": "Eroded Area"
      },
      "geometry": {
        "type": "Polygon",
        "coordinates": [
          [
            [
              122.624483,
              10.779308
            ],
            [
              122.624459,
              10.779275
            ],
            [
              122.62449,
              10.779262
            ],
            [
              122.624512,
              10.779263
            ],
            [
              122.624521,
              10.779285
            ],
            [
              122.624483,
              10.779308
            ]
          ]
        ]
      }
    }
  ]
}