{
"type": "FeatureCollection",
"name": "forbidden_zone_final",
"crs": { "type": "name", "properties": { "name": "urn:ogc:def:crs:EPSG::32651" } },
"features": [
{ "type": "Feature", "properties": { "id": 1 }, "geometry": { "type": "MultiPolygon", "coordinates": [ [ [ [ 458964.669447626103647, 1191791.454552438342944 ], [ 458964.720386505767237, 1191791.454552438342944 ], [ 458968.74455799930729, 1191788.245403019478545 ], [ 458968.999252397625241, 1191782.79494289518334 ], [ 458965.942919617751613, 1191779.127343559404835 ], [ 458960.492459493572824, 1191778.872649161145091 ], [ 458956.875799037341494, 1191782.234615218825638 ], [ 458956.417349120369181, 1191786.156908953096718 ], [ 458957.232371194986627, 1191786.411603351356462 ], [ 458957.843637750949711, 1191787.532258704071864 ], [ 458957.588943352631759, 1191788.500097417738289 ], [ 458956.621104639023542, 1191788.805730695836246 ], [ 458956.468288000032771, 1191789.518875011010095 ], [ 458956.417349120369181, 1191790.48671372467652 ], [ 458956.213593601656612, 1191792.065818994306028 ], [ 458955.90796032367507, 1191791.097980280639604 ], [ 458955.092938249057624, 1191791.913002355257049 ], [ 458953.361016340437345, 1191791.811124596046284 ], [ 458950.76313347753603, 1191792.371452272403985 ], [ 458959.066170862934086, 1191797.363462479552254 ], [ 458965.17883642273955, 1191793.186474347021431 ], [ 458964.669447626103647, 1191791.454552438342944 ] ] ] ] } },
{ "type": "Feature", "properties": { "id": 2 }, "geometry": { "type": "MultiPolygon", "coordinates": [ [ [ [ 458968.184230323007796, 1191795.427785052219406 ], [ 458972.51403509452939, 1191799.146323267836124 ], [ 458978.524822895007674, 1191792.269574512960389 ], [ 458974.042201484495308, 1191788.601975177181885 ], [ 458968.184230323007796, 1191795.427785052219406 ] ] ] ] } },
{ "type": "Feature", "properties": { "id": 3 }, "geometry": { "type": "MultiPolygon", "coordinates": [ [ [ [ 458959.117109742597677, 1191780.044243393233046 ], [ 458957.079554555995855, 1191774.288149991072714 ], [ 458956.060776962665841, 1191775.663499742047861 ], [ 458955.296693767711986, 1191773.473127916455269 ], [ 458953.004444182792213, 1191775.001294306479394 ], [ 458954.685427211748902, 1191775.714438621886075 ], [ 458957.538004472968169, 1191781.521470903651789 ], [ 458959.117109742597677, 1191780.044243393233046 ] ] ] ] } },
{ "type": "Feature", "properties": { "id": 4 }, "geometry": { "type": "MultiPolygon", "coordinates": [ [ [ [ 458956.111715842329431, 1191775.4597442233935 ], [ 458961.562175966508221, 1191767.05482907872647 ], [ 458959.015231983270496, 1191767.666095634689555 ], [ 458957.843637750949711, 1191770.314917377196252 ], [ 458956.621104639023542, 1191772.352472563972697 ], [ 458955.551388166029938, 1191773.829700074158609 ], [ 458956.111715842329431, 1191775.4597442233935 ] ] ] ] } },
{ "type": "Feature", "properties": { "id": 5 }, "geometry": { "type": "MultiPolygon", "coordinates": [ [ [ [ 458961.634789189964067, 1191767.065650152973831 ], [ 458962.634545643813908, 1191765.121679270640016 ], [ 458963.301049946341664, 1191765.454931421903893 ], [ 458963.634302097605541, 1191763.677586615085602 ], [ 458964.023096274060663, 1191762.066867884015664 ], [ 458965.633815005188808, 1191760.456149152945727 ], [ 458965.578272979997564, 1191759.567476749420166 ], [ 458966.46694538340671, 1191757.956758018350229 ], [ 458968.74416841706261, 1191754.457610429963097 ], [ 458966.578029433789197, 1191753.791106127435341 ], [ 458965.133936778292991, 1191755.901703085517511 ], [ 458964.856226652220357, 1191757.5679638418369 ], [ 458963.856470198428724, 1191759.345308648655191 ], [ 458962.745629694196396, 1191761.400363581487909 ], [ 458961.856957290845457, 1191762.677830161293969 ], [ 458960.523948685731739, 1191764.621801043860614 ], [ 458959.024314005044289, 1191767.732154455501586 ], [ 458961.634789189964067, 1191767.065650152973831 ] ] ] ] } },
{ "type": "Feature", "properties": { "id": 6 }, "geometry": { "type": "MultiPolygon", "coordinates": [ [ [ [ 458968.804559693671763, 1191754.418301931349561 ], [ 458968.804559693671763, 1191754.337401698576286 ], [ 458970.018063184688799, 1191751.627243902068585 ], [ 458970.260763882892206, 1191750.980042040348053 ], [ 458970.867515628342517, 1191750.251939945621416 ], [ 458971.676517955667805, 1191748.957536221947521 ], [ 458972.32371981756296, 1191747.986733429133892 ], [ 458973.213622377603315, 1191746.530529240146279 ], [ 458974.224875286745373, 1191744.993424818152562 ], [ 458975.155227963172365, 1191743.496770512545481 ], [ 458975.559729126805905, 1191743.051819232525304 ], [ 458976.409181570517831, 1191741.555164926918224 ], [ 458977.460884596046526, 1191740.139410854317248 ], [ 458976.04513052321272, 1191739.532659108750522 ], [ 458974.831627032253891, 1191741.312464228831232 ], [ 458974.46757598494878, 1191742.000116206938401 ], [ 458973.699023774010129, 1191743.213619698071852 ], [ 458972.768671097583137, 1191744.346222956199199 ], [ 458971.757418188441079, 1191745.478826214559376 ], [ 458971.069766210217495, 1191746.854130171006545 ], [ 458970.624814930197317, 1191747.541782149113715 ], [ 458970.179863650118932, 1191748.14853389468044 ], [ 458969.815812602872029, 1191748.795735756633803 ], [ 458969.209060857363511, 1191749.92833901476115 ], [ 458968.602309111854993, 1191750.980042040348053 ], [ 458968.036007482733112, 1191751.465443436754867 ], [ 458966.620253409957513, 1191753.811550186015666 ], [ 458968.804559693671763, 1191754.418301931349561 ] ] ] ] } },
{ "type": "Feature", "properties": { "id": 7 }, "geometry": { "type": "MultiPolygon", "coordinates": [ [ [ [ 458976.814567815279588, 1191738.058679843088612 ], [ 458977.685925780097023, 1191736.864596706116572 ], [ 458973.103228335443418, 1191733.314619812415913 ], [ 458972.393232956703287, 1191732.765987019753084 ], [ 458971.295967371319421, 1191731.765538986073807 ], [ 458971.618692543532234, 1191730.539183331886306 ], [ 458971.554147509043105, 1191729.377372712129727 ], [ 458971.747782612394076, 1191728.764194885035977 ], [ 458970.811879613087513, 1191727.860564403003082 ], [ 458969.811431579408236, 1191726.795571334892884 ], [ 458969.069163683452643, 1191727.118296507047489 ], [ 458967.326447753759567, 1191726.053303438937292 ], [ 458967.165085167682264, 1191726.343756093876436 ], [ 458966.713269926665816, 1191727.537839230848476 ], [ 458966.810087478312198, 1191728.280107126804069 ], [ 458966.003274547925685, 1191729.086920057190582 ], [ 458965.486914272478316, 1191729.506462780991569 ], [ 458965.519186789693777, 1191730.668273400748149 ], [ 458965.809639444632921, 1191732.669169468106702 ], [ 458968.552803408005275, 1191733.76643505343236 ], [ 458969.682341510546394, 1191733.508254915708676 ], [ 458970.198701785993762, 1191733.250074777984992 ], [ 458971.747782612394076, 1191734.34734036331065 ], [ 458973.329135955951642, 1191735.509150983067229 ], [ 458976.814567815279588, 1191738.058679843088612 ] ] ] ] } },
{ "type": "Feature", "properties": { "id": 8 }, "geometry": { "type": "MultiPolygon", "coordinates": [ [ [ [ 458977.492290676804259, 1191740.156393462326378 ], [ 458978.492738710483536, 1191738.478222566889599 ], [ 458979.202734089281876, 1191737.994134808657691 ], [ 458980.170909605745692, 1191736.703234120039269 ], [ 458980.590452329546679, 1191735.509150983067229 ], [ 458981.397265259933192, 1191735.057335742050782 ], [ 458982.010443087026943, 1191733.76643505343236 ], [ 458982.688165948551614, 1191732.023719123797491 ], [ 458983.688613982289098, 1191730.442365780239925 ], [ 458984.011339154443704, 1191729.57100781542249 ], [ 458985.173149774200283, 1191727.376476644771174 ], [ 458985.657237532432191, 1191726.343756093876436 ], [ 458986.819048152246978, 1191725.020582888042554 ], [ 458985.366784877493046, 1191724.504222612595186 ], [ 458984.559971947106533, 1191726.214666025014594 ], [ 458983.849976568366401, 1191727.634656782494858 ], [ 458983.139981189626269, 1191728.570559781743214 ], [ 458982.300895741966087, 1191729.667825367068872 ], [ 458981.84908050094964, 1191730.539183331886306 ], [ 458981.300447708286811, 1191731.249178710626438 ], [ 458981.042267570563126, 1191731.991446606582031 ], [ 458980.525907295115758, 1191732.410989330383018 ], [ 458979.622276813082863, 1191734.089160225586966 ], [ 458979.235006606497336, 1191734.702338052680716 ], [ 458978.557283744914457, 1191735.509150983067229 ], [ 458977.815015848958865, 1191736.638689085608348 ], [ 458977.040475435787812, 1191737.639137119287625 ], [ 458976.007754884893075, 1191739.478670600801706 ], [ 458977.492290676804259, 1191740.156393462326378 ] ] ] ] } },
{ "type": "Feature", "properties": { "id": 9 }, "geometry": { "type": "MultiPolygon", "coordinates": [ [ [ [ 458986.710761439346243, 1191725.010815809480846 ], [ 458988.905454599764198, 1191719.850321081001312 ], [ 458991.396727917017415, 1191714.867774446494877 ], [ 458992.642364575644024, 1191712.435817160643637 ], [ 458994.065949328360148, 1191710.359756062971428 ], [ 458995.19295392424101, 1191708.63959115347825 ], [ 458996.557222645555157, 1191706.38558196160011 ], [ 458997.921491366927512, 1191704.309520863927901 ], [ 458999.700972307822667, 1191701.580983421299607 ], [ 459001.539769280061591, 1191698.911762009840459 ], [ 459003.25993418955477, 1191696.835700912168249 ], [ 459005.039415130449925, 1191694.107163469539955 ], [ 459003.615830377733801, 1191693.869899344164878 ], [ 459001.361821185972076, 1191697.250913131749257 ], [ 458999.22644405689789, 1191700.157398668583483 ], [ 458997.980807398271281, 1191702.292775797657669 ], [ 458995.904746300599072, 1191705.25857736566104 ], [ 458994.837057736061979, 1191706.860110212583095 ], [ 458993.17620885791257, 1191709.647963686613366 ], [ 458991.396727917017415, 1191712.37650112924166 ], [ 458990.506987446569838, 1191714.6305103211198 ], [ 458989.61724697612226, 1191715.994779042433947 ], [ 458988.371610317553859, 1191718.18947220267728 ], [ 458985.405808749375865, 1191724.476971527328715 ], [ 458986.710761439346243, 1191725.010815809480846 ] ] ] ] } },
{ "type": "Feature", "properties": { "id": 10 }, "geometry": { "type": "MultiPolygon", "coordinates": [ [ [ [ 459004.981018204882275, 1191694.117070031585172 ], [ 459008.646806934673805, 1191687.187222843756899 ], [ 459009.851997749938164, 1191684.676408645231277 ], [ 459012.413028232404031, 1191679.102401124546304 ], [ 459013.216488775913604, 1191676.79245206201449 ], [ 459013.668435331608634, 1191675.085098406998441 ], [ 459014.120381887361873, 1191673.327528468100354 ], [ 459015.124707566748839, 1191672.323202788829803 ], [ 459014.873626146931201, 1191670.615849133813754 ], [ 459015.476221554563381, 1191667.703304663533345 ], [ 459016.530763517890591, 1191664.941409045131877 ], [ 459017.886603185092099, 1191660.723241191823035 ], [ 459016.38011466601165, 1191660.47215977194719 ], [ 459015.124707566748839, 1191665.393355601001531 ], [ 459014.321247023239266, 1191668.105034935288131 ], [ 459013.3169213438523, 1191671.168228257447481 ], [ 459012.613893368281424, 1191673.327528468100354 ], [ 459011.207837417139672, 1191676.892884630011395 ], [ 459009.249402342305984, 1191682.165594446705654 ], [ 459008.747239502612501, 1191683.7725155337248 ], [ 459008.295292946859263, 1191685.027922633104026 ], [ 459007.49183240334969, 1191686.735276288120076 ], [ 459006.587939291901421, 1191688.593278795015067 ], [ 459003.524745969742071, 1191693.81577232782729 ], [ 459004.981018204882275, 1191694.117070031585172 ] ] ] ] } },
{ "type": "Feature", "properties": { "id": 11 }, "geometry": { "type": "MultiPolygon", "coordinates": [ [ [ [ 459017.86671407322865, 1191660.719049193197861 ], [ 459018.497847846709192, 1191657.854672836605459 ], [ 459018.886237861181144, 1191657.90322158834897 ], [ 459019.274627875594888, 1191658.048867843812332 ], [ 459019.468822882859968, 1191658.485806609969586 ], [ 459019.66301789006684, 1191658.582904113689438 ], [ 459020.148505408142228, 1191658.243062851019204 ], [ 459020.197054159943946, 1191656.495307785924524 ], [ 459020.585444174415898, 1191655.087393983500078 ], [ 459018.789140357577708, 1191655.18449148721993 ], [ 459016.992836540739518, 1191655.28158899070695 ], [ 459015.293630227504764, 1191655.087393983500078 ], [ 459015.196532723901328, 1191656.543856537668034 ], [ 459014.71104520582594, 1191658.388709106482565 ], [ 459014.613947702222504, 1191659.359684142516926 ], [ 459013.35168015526142, 1191659.505330397980288 ], [ 459013.691521417873446, 1191660.5734029377345 ], [ 459015.050886468496174, 1191660.913244200404733 ], [ 459015.342178979306482, 1191660.039366667857394 ], [ 459015.924764000985306, 1191659.893720412394032 ], [ 459015.973312752787024, 1191660.136464171344414 ], [ 459016.361702767258976, 1191660.136464171344414 ], [ 459016.313154015457258, 1191660.5734029377345 ], [ 459016.361702767258976, 1191660.476305434014648 ], [ 459017.86671407322865, 1191660.719049193197861 ] ] ] ] } },
{ "type": "Feature", "properties": { "id": 12 }, "geometry": { "type": "MultiPolygon", "coordinates": [ [ [ [ 459016.847190285334364, 1191655.23304023896344 ], [ 459020.633992926217616, 1191654.941747728269547 ], [ 459020.3427004153491, 1191655.038845231756568 ], [ 459018.497847846709192, 1191652.999797655967996 ], [ 459020.488346670754254, 1191655.135942735476419 ], [ 459020.682541678019334, 1191651.737530109006912 ], [ 459021.21657794789644, 1191650.620908817276359 ], [ 459022.57594299846096, 1191650.960750079946592 ], [ 459022.673040502064396, 1191650.232518802862614 ], [ 459022.673040502064396, 1191649.358641270315275 ], [ 459021.45932170690503, 1191649.067348759621382 ], [ 459021.750614217773546, 1191648.290568730793893 ], [ 459021.993357976782136, 1191647.707983708940446 ], [ 459021.119480444293004, 1191647.368142446270213 ], [ 459021.070931692433078, 1191647.17394743906334 ], [ 459021.993357976782136, 1191646.785557424649596 ], [ 459020.925285437027924, 1191646.688459921162575 ], [ 459021.265126699698158, 1191645.32909487048164 ], [ 459019.760115393670276, 1191645.183448615018278 ], [ 459017.526872810616624, 1191644.989253607811406 ], [ 459015.050886468496174, 1191644.552314841654152 ], [ 459014.905240213032812, 1191645.037802359554917 ], [ 459014.225557687750552, 1191648.727507496951148 ], [ 459013.59442391427001, 1191651.397688846336678 ], [ 459013.254582651657984, 1191654.26206520292908 ], [ 459013.740070169675164, 1191654.941747728269547 ], [ 459016.847190285334364, 1191655.23304023896344 ] ] ] ] } },
{ "type": "Feature", "properties": { "id": 13 }, "geometry": { "type": "MultiPolygon", "coordinates": [ [ [ [ 459021.362224203301594, 1191654.116418947465718 ], [ 459022.187552983989008, 1191654.407711458392441 ], [ 459022.13900423218729, 1191654.796101472806185 ], [ 459022.284650487592444, 1191654.941747728269547 ], [ 459023.449820530950092, 1191653.970772692002356 ], [ 459025.585965610458516, 1191654.747552720829844 ], [ 459024.420795567100868, 1191653.679480181308463 ], [ 459024.420795567100868, 1191653.096895159455016 ], [ 459024.663539326109458, 1191652.417212634114549 ], [ 459025.634514362260234, 1191651.786078860750422 ], [ 459026.654038150212727, 1191652.223017626907676 ], [ 459026.8482331574196, 1191650.912201328203082 ], [ 459025.100478092383128, 1191649.552836277754977 ], [ 459023.741113041818608, 1191649.747031284961849 ], [ 459023.546918034611735, 1191650.281067554838955 ], [ 459022.770138005667832, 1191649.84412878844887 ], [ 459022.57594299846096, 1191651.057847583666444 ], [ 459021.21657794789644, 1191650.620908817276359 ], [ 459020.925285437027924, 1191651.786078860750422 ], [ 459020.731090429821052, 1191653.38818767038174 ], [ 459021.362224203301594, 1191654.116418947465718 ] ] ] ] } },
{ "type": "Feature", "properties": { "id": 13 }, "geometry": { "type": "MultiPolygon", "coordinates": [ [ [ [ 459021.012703284970485, 1191645.102273819968104 ], [ 459020.869246049667709, 1191642.089671878842637 ], [ 459021.801718079077546, 1191641.731028790585697 ], [ 459021.873446696728934, 1191641.228928467258811 ], [ 459021.084431902621873, 1191640.870285379001871 ], [ 459021.084431902621873, 1191639.722627496579662 ], [ 459021.873446696728934, 1191640.15299920248799 ], [ 459021.873446696728934, 1191639.507441643625498 ], [ 459021.156160520273261, 1191639.292255790671334 ], [ 459020.869246049667709, 1191637.427311731968075 ], [ 459020.438874343817588, 1191632.406308496836573 ], [ 459020.582331579062156, 1191630.326178584946319 ], [ 459019.004301990906242, 1191630.900007526157424 ], [ 459019.578130932059139, 1191637.355583114316687 ], [ 459019.578130932059139, 1191639.43571302597411 ], [ 459019.362945079104975, 1191645.102273819968104 ], [ 459021.012703284970485, 1191645.102273819968104 ] ] ] ] } },
{ "type": "Feature", "properties": { "id": 14 }, "geometry": { "type": "MultiPolygon", "coordinates": [ [ [ [ 459027.396550255420152, 1191634.845081496750936 ], [ 459026.177163755462971, 1191635.562367673264816 ], [ 459025.531606196658686, 1191636.351382467197254 ], [ 459023.7383907554904, 1191639.650898878928274 ], [ 459023.308019049640279, 1191643.739430084824562 ], [ 459024.742591402551625, 1191647.182403731858358 ], [ 459026.033706520160194, 1191649.190805025864393 ], [ 459027.898650578921661, 1191650.553648761007935 ], [ 459030.40915219654562, 1191651.557849408127367 ], [ 459034.56941201997688, 1191652.059949731687084 ], [ 459038.084114284603857, 1191650.697105996310711 ], [ 459040.522887284576427, 1191649.262533643515781 ], [ 459041.885731019836385, 1191646.967217878904194 ], [ 459043.105117519793566, 1191644.958816584665328 ], [ 459043.750675078597851, 1191642.304857731796801 ], [ 459042.387831343337893, 1191638.861884084763005 ], [ 459041.957459637487773, 1191636.925211408408359 ], [ 459039.662143872817978, 1191634.127795320237055 ], [ 459037.653742578753736, 1191632.549765732139349 ], [ 459034.56941201997688, 1191632.478037114487961 ], [ 459032.48928210826125, 1191632.406308496836573 ], [ 459029.907051872985903, 1191632.908408820163459 ], [ 459028.329022284829989, 1191633.123594673117623 ], [ 459027.037907167163212, 1191634.127795320237055 ], [ 459027.396550255420152, 1191634.845081496750936 ] ] ] ] } },
{ "type": "Feature", "properties": { "id": 15 }, "geometry": { "type": "MultiPolygon", "coordinates": [ [ [ [ 459027.1096357848146, 1191633.984338084934279 ], [ 459028.185565049527213, 1191633.051866055466235 ], [ 459025.890249284857418, 1191630.110992731992155 ], [ 459024.599134167248849, 1191630.900007526157424 ], [ 459027.1096357848146, 1191633.984338084934279 ] ] ] ] } },
{ "type": "Feature", "properties": { "id": 16 }, "geometry": { "type": "MultiPolygon", "coordinates": [ [ [ [ 459020.510602961468976, 1191632.406308496836573 ], [ 459024.240491078991909, 1191630.971736143808812 ], [ 459026.822721314267255, 1191629.752349643968046 ], [ 459028.974579843634274, 1191628.891606232151389 ], [ 459031.341624225897249, 1191627.815676967380568 ], [ 459032.776196578808594, 1191627.241848026169464 ], [ 459034.21076893171994, 1191626.30937599693425 ], [ 459033.350025520019699, 1191625.735547055723146 ], [ 459028.902851225982886, 1191627.672219732077792 ], [ 459026.464078226010315, 1191628.389505908591673 ], [ 459023.236290431988891, 1191629.895806879270822 ], [ 459020.582331579062156, 1191630.900007526157424 ], [ 459020.510602961468976, 1191632.406308496836573 ] ] ] ] } },
{ "type": "Feature", "properties": { "id": 14 }, "geometry": { "type": "MultiPolygon", "coordinates": [ [ [ [ 459019.67110276297899, 1191639.606372328009456 ], [ 459019.595024328213185, 1191638.313038936583325 ], [ 459017.23659285006579, 1191638.160882067168131 ], [ 459015.106396676274016, 1191638.084803632227704 ], [ 459011.758945545938332, 1191638.313038936583325 ], [ 459007.955023807007819, 1191638.160882067168131 ], [ 459006.129141372337472, 1191638.236960501875728 ], [ 459004.911886415851768, 1191636.715391806326807 ], [ 459002.781690242001787, 1191636.258921197615564 ], [ 459000.879729372565635, 1191635.802450588904321 ], [ 458998.52129789441824, 1191636.867548675974831 ], [ 458997.988748850941192, 1191638.008725197520107 ], [ 459000.271101894322783, 1191639.986764501780272 ], [ 459002.173062763817143, 1191641.508333197329193 ], [ 459004.531494241964538, 1191641.204019458265975 ], [ 459006.053062937513459, 1191639.682450762717053 ], [ 459019.67110276297899, 1191639.606372328009456 ] ] ] ] } },
{ "type": "Feature", "properties": { "id": 16 }, "geometry": { "type": "MultiPolygon", "coordinates": [ [ [ [ 459018.910318415204529, 1191631.92245041532442 ], [ 459018.986396849970333, 1191631.085587632609531 ], [ 459015.867181024048477, 1191630.32480328483507 ], [ 459014.117377024143934, 1191629.944411111064255 ], [ 459011.454631806875113, 1191629.259705197997391 ], [ 459010.161298415623605, 1191628.955391458934173 ], [ 459010.23737685038941, 1191628.651077719638124 ], [ 459011.454631806875113, 1191626.14048937195912 ], [ 459008.183259111363441, 1191624.162450067698956 ], [ 459006.43345511140069, 1191623.705979458987713 ], [ 459003.922866763721686, 1191627.281665893737227 ], [ 459002.781690242001787, 1191629.868332676123828 ], [ 459003.846788328955881, 1191630.781273893546313 ], [ 459008.33541598089505, 1191632.759313197806478 ], [ 459009.324435633025132, 1191630.096567980479449 ], [ 459018.910318415204529, 1191631.92245041532442 ] ] ] ] } },
{ "type": "Feature", "properties": { "id": 18 }, "geometry": { "type": "MultiPolygon", "coordinates": [ [ [ [ 459019.214632154325955, 1191630.933430763194337 ], [ 459021.116593023820315, 1191630.476960154483095 ], [ 459024.38796571927378, 1191629.183626763289794 ], [ 459026.822475632245187, 1191628.042450241511688 ], [ 459028.267965893028304, 1191626.901273719733581 ], [ 459029.409142414748203, 1191624.618920676410198 ], [ 459029.104828675626777, 1191622.032253894023597 ], [ 459027.659338414785452, 1191618.608724328922108 ], [ 459025.376985371403862, 1191616.934998763725162 ], [ 459021.344828328117728, 1191615.109116329113021 ], [ 459018.606004676083103, 1191615.793822241947055 ], [ 459015.33463198057143, 1191617.391469372436404 ], [ 459011.987180850293953, 1191620.434606763534248 ], [ 459012.215416154649574, 1191624.086371632991359 ], [ 459014.193455458909739, 1191628.270685545867309 ], [ 459017.693063458718825, 1191630.476960154483095 ], [ 459019.214632154325955, 1191630.933430763194337 ] ] ] ] } },
{ "type": "Feature", "properties": { "id": 19 }, "geometry": { "type": "MultiPolygon", "coordinates": [ [ [ [ 459034.202083805808797, 1191626.216567806899548 ], [ 459035.495417197060306, 1191623.173430415568873 ], [ 459036.104044675303157, 1191622.032253894023597 ], [ 459036.560515283956192, 1191620.434606763534248 ], [ 459037.09306432743324, 1191619.217351807048544 ], [ 459037.625613370852079, 1191618.532645894214511 ], [ 459038.995025196869392, 1191619.293430241988972 ], [ 459039.90796641423367, 1191618.380489024566486 ], [ 459037.929927109973505, 1191617.695783111499622 ], [ 459038.158162414329126, 1191617.315390937728807 ], [ 459039.90796641423367, 1191617.695783111499622 ], [ 459040.2883585881209, 1191616.174214415950701 ], [ 459043.483652848866768, 1191616.70676345936954 ], [ 459045.537770587892737, 1191610.16401806846261 ], [ 459038.538554588216357, 1191608.870684677036479 ], [ 459037.09306432743324, 1191614.8808810247574 ], [ 459037.625613370852079, 1191615.337351633468643 ], [ 459036.484436849190388, 1191617.315390937728807 ], [ 459032.908750414557289, 1191625.684018763247877 ], [ 459034.202083805808797, 1191626.216567806899548 ] ] ] ] } },
{ "type": "Feature", "properties": { "id": 19 }, "geometry": { "type": "MultiPolygon", "coordinates": [ [ [ [ 459388.296687321271747, 1191689.419349469710141 ], [ 459396.41198770183837, 1191669.324319955892861 ], [ 459395.767916243057698, 1191667.263291287934408 ], [ 459396.15435911831446, 1191665.331076911650598 ], [ 459394.222144741972443, 1191665.331076911650598 ], [ 459392.805187532678246, 1191665.846334078582004 ], [ 459390.744158864603378, 1191665.331076911650598 ], [ 459390.615344572870526, 1191664.300562577554956 ], [ 459389.584830238774884, 1191663.14123395178467 ], [ 459389.069573071785271, 1191660.307319533079863 ], [ 459386.493287236662582, 1191660.693762408336625 ], [ 459385.205144319101237, 1191662.883605368202552 ], [ 459385.720401486149058, 1191664.815819744486362 ], [ 459384.432258568587713, 1191665.975148370256647 ], [ 459383.401744234550279, 1191665.71751978690736 ], [ 459381.469529858208261, 1191665.331076911650598 ], [ 459381.0830869829515, 1191666.490405537420884 ], [ 459379.408501190133393, 1191666.232776953838766 ], [ 459378.893244023143779, 1191666.232776953838766 ], [ 459378.120358272572048, 1191667.392105579609051 ], [ 459376.832215355010703, 1191667.392105579609051 ], [ 459375.157629562192596, 1191666.748034120770171 ], [ 459373.7406723528984, 1191664.687005452811718 ], [ 459372.452529435337055, 1191662.625976784620434 ], [ 459370.262686475529335, 1191662.49716249294579 ], [ 459367.042329181625973, 1191662.368348201271147 ], [ 459364.594857638294343, 1191663.527676827041432 ], [ 459364.079600471246522, 1191665.846334078582004 ], [ 459364.079600471246522, 1191666.748034120770171 ], [ 459364.466043346561491, 1191669.710762831149623 ], [ 459367.171143473417033, 1191671.127720040502027 ], [ 459367.171143473417033, 1191672.029420082923025 ], [ 459367.686400640406646, 1191673.575191583950073 ], [ 459367.686400640406646, 1191674.992148793302476 ], [ 459366.784700598102063, 1191676.666734586004168 ], [ 459364.337229054770432, 1191678.34132037893869 ], [ 459366.26944343111245, 1191679.500649004708976 ], [ 459367.815214932139497, 1191678.212506087031215 ], [ 459369.360986433224753, 1191677.69724892009981 ], [ 459370.906757934310008, 1191677.826063211774454 ], [ 459373.225415185908787, 1191678.083691795356572 ], [ 459375.028815270459745, 1191678.985391837544739 ], [ 459376.445772479753941, 1191680.144720463315025 ], [ 459375.544072437507566, 1191682.334563423180953 ], [ 459377.089843938534614, 1191683.365077757276595 ], [ 459379.794944065390155, 1191682.849820590345189 ], [ 459379.022058314876631, 1191685.297292133560404 ], [ 459376.832215355010703, 1191686.585435051238164 ], [ 459375.415258145716507, 1191688.646463719196618 ], [ 459378.120358272572048, 1191689.67697805329226 ], [ 459380.825458399427589, 1191689.548163761617616 ], [ 459380.052572648914065, 1191691.609192429576069 ], [ 459382.242415608779993, 1191691.480378137901425 ], [ 459384.174629985063802, 1191689.290535178035498 ], [ 459385.333958610892296, 1191689.03290659445338 ], [ 459386.879730111919343, 1191688.904092302778736 ], [ 459388.296687321271747, 1191689.419349469710141 ] ] ] ] } },
{ "type": "Feature", "properties": { "id": 20 }, "geometry": { "type": "MultiPolygon", "coordinates": [ [ [ [ 459341.956766456540208, 1191750.53716167085804 ], [ 459340.843310564407147, 1191750.954707630444318 ], [ 459340.286582618369721, 1191751.511435576481745 ], [ 459340.286582618369721, 1191752.624891468556598 ], [ 459339.17312672623666, 1191753.320801401278004 ], [ 459338.059670834103599, 1191753.320801401278004 ], [ 459336.946214941970538, 1191752.903255441691726 ], [ 459335.971941036405042, 1191754.01671133376658 ], [ 459334.719303157762624, 1191753.738347360631451 ], [ 459334.16257521166699, 1191752.624891468556598 ], [ 459332.074845413968433, 1191752.624891468556598 ], [ 459329.291205683606677, 1191754.295075306901708 ], [ 459327.342657872417476, 1191755.269349212525412 ], [ 459326.785929926380049, 1191758.609716888749972 ], [ 459334.580121171253268, 1191756.382805104600266 ], [ 459334.719303157762624, 1191758.192170929163694 ], [ 459338.616398780199233, 1191758.748898875201121 ], [ 459339.869036658841651, 1191756.521987091051415 ], [ 459341.400038510502782, 1191756.243623117916286 ], [ 459342.791858375654556, 1191753.738347360631451 ], [ 459341.956766456540208, 1191750.53716167085804 ] ] ] ] } },
{ "type": "Feature", "properties": { "id": 21 }, "geometry": { "type": "MultiPolygon", "coordinates": [ [ [ [ 459302.645160605956335, 1191779.831663259537891 ], [ 459305.836892084218562, 1191774.689429211197421 ], [ 459307.964713069784921, 1191774.689429211197421 ], [ 459308.673986731620971, 1191776.994568612193689 ], [ 459311.333762963477056, 1191778.41311593586579 ], [ 459314.525494441739284, 1191776.107976534869522 ], [ 459316.475997011817526, 1191773.448200302897021 ], [ 459319.490410074591637, 1191769.547195162856951 ], [ 459322.504823137423955, 1191766.355463684536517 ], [ 459324.809962538420223, 1191765.823508438188583 ], [ 459328.533649263030384, 1191764.227642699144781 ], [ 459333.675883311370853, 1191762.454458544496447 ], [ 459339.172754190629348, 1191759.972000728128478 ], [ 459343.251077746157534, 1191758.730771819828078 ], [ 459348.570630209927913, 1191756.957587665179744 ], [ 459349.45722228725208, 1191754.829766679788008 ], [ 459351.230406441842206, 1191754.297811433440074 ], [ 459352.471635350084398, 1191753.411219356115907 ], [ 459355.3087299974286, 1191752.879264109767973 ], [ 459357.259232567448635, 1191751.10607995511964 ], [ 459359.741690383874811, 1191749.687532631447539 ], [ 459355.486048412858509, 1191746.318482737755403 ], [ 459353.358227427350357, 1191746.141164322150871 ], [ 459351.407724857272115, 1191747.027756399475038 ], [ 459349.45722228725208, 1191750.928761539747939 ], [ 459345.556217147153802, 1191749.510214216075838 ], [ 459342.896440915239509, 1191750.928761539747939 ], [ 459342.896440915239509, 1191753.76585618709214 ], [ 459342.00984883797355, 1191756.248314003460109 ], [ 459340.236664683383424, 1191756.957587665179744 ], [ 459338.463480528793298, 1191758.376134988851845 ], [ 459334.385156973206904, 1191758.90809023543261 ], [ 459334.385156973206904, 1191756.42563241883181 ], [ 459326.937783523928374, 1191758.730771819828078 ], [ 459326.760465108440258, 1191758.198816573480144 ], [ 459327.292420354846399, 1191755.539040341507643 ], [ 459320.908957398263738, 1191757.489542911527678 ], [ 459314.525494441739284, 1191761.745184882776812 ], [ 459310.447170886211097, 1191765.291553191840649 ], [ 459302.290523775038309, 1191772.384289810201153 ], [ 459300.340021205018274, 1191776.107976534869522 ], [ 459302.645160605956335, 1191779.831663259537891 ] ] ] ] } },
{ "type": "Feature", "properties": { "id": 22 }, "geometry": { "type": "MultiPolygon", "coordinates": [ [ [ [ 459276.960950395092368, 1191816.233917541336268 ], [ 459277.070668928499799, 1191813.710391272325069 ], [ 459275.205453860166017, 1191813.161798605229706 ], [ 459273.340238791774027, 1191810.857709402916953 ], [ 459271.913897857128177, 1191809.541087001794949 ], [ 459270.816712522821035, 1191810.528553802752867 ], [ 459271.694460790255107, 1191812.942361538298428 ], [ 459268.293186253809836, 1191810.638272336218506 ], [ 459265.989097051729914, 1191808.882775801233947 ], [ 459265.330785851110704, 1191807.456434866646305 ], [ 459264.891911717364565, 1191805.700938331661746 ], [ 459262.368385448411573, 1191805.152345664566383 ], [ 459260.722607446892653, 1191804.055160330142826 ], [ 459258.747673845093232, 1191804.932908597635105 ], [ 459257.65048851078609, 1191806.798123666085303 ], [ 459256.44358464301331, 1191806.688405132619664 ], [ 459254.468651041213889, 1191807.236997799715027 ], [ 459252.164561839075759, 1191804.932908597635105 ], [ 459250.957657971361186, 1191804.055160330142826 ], [ 459247.446664901450276, 1191804.055160330142826 ], [ 459244.593983032216784, 1191803.396849129581824 ], [ 459243.387079164444003, 1191801.092759927501902 ], [ 459238.230308093014173, 1191799.117826325586066 ], [ 459230.659729286155198, 1191797.910922457929701 ], [ 459227.039017682836857, 1191797.691485390998423 ], [ 459220.894779810565524, 1191798.78867072542198 ], [ 459218.042097941273823, 1191798.78867072542198 ], [ 459218.042097941273823, 1191805.37178273126483 ], [ 459221.443372477719095, 1191805.37178273126483 ], [ 459224.515491413825657, 1191805.37178273126483 ], [ 459228.136203017143998, 1191804.932908597635105 ], [ 459232.415225821081549, 1191804.932908597635105 ], [ 459235.158189156907611, 1191804.823190064169466 ], [ 459237.352559825580101, 1191805.920375398593023 ], [ 459239.437211960786954, 1191807.456434866646305 ], [ 459242.289893830078654, 1191808.443901667371392 ], [ 459246.788353700831067, 1191810.638272336218506 ], [ 459249.860472636995837, 1191812.174331804271787 ], [ 459252.822873039694969, 1191813.710391272325069 ], [ 459254.907525174960028, 1191814.917295139981434 ], [ 459256.772740243293811, 1191816.563073141500354 ], [ 459259.625422112585511, 1191817.660258475923911 ], [ 459261.051763047231361, 1191819.196317943977192 ], [ 459263.465570782776922, 1191821.06153301242739 ], [ 459265.769659984856844, 1191822.048999813152477 ], [ 459268.293186253809836, 1191823.146185147576034 ], [ 459269.500090121582616, 1191823.804496348137036 ], [ 459276.960950395092368, 1191816.233917541336268 ] ] ] ] } },
{ "type": "Feature", "properties": { "id": 24 }, "geometry": { "type": "MultiPolygon", "coordinates": [ [ [ [ 459217.899548981513362, 1191805.475602915976197 ], [ 459217.899548981513362, 1191798.120146243833005 ], [ 459185.507249405607581, 1191805.617054005851969 ], [ 459178.29324382316554, 1191809.294782342156395 ], [ 459167.401509904651903, 1191814.952825936023146 ], [ 459156.368324896262493, 1191820.186516260495409 ], [ 459151.983341110870242, 1191824.005695686675608 ], [ 459149.720123673265334, 1191827.824875112622976 ], [ 459144.062080079165753, 1191833.765820886241272 ], [ 459139.959998473525047, 1191837.867902491940185 ], [ 459134.726308148994576, 1191843.101592816412449 ], [ 459133.311797250469681, 1191846.072065703338012 ], [ 459129.916971094091423, 1191849.89124512928538 ], [ 459130.19987327378476, 1191855.832190903136507 ], [ 459129.77552000421565, 1191859.651370329083875 ], [ 459134.584857059177011, 1191855.124935453757644 ], [ 459136.989525586599484, 1191852.720266926335171 ], [ 459140.38435174303595, 1191849.325440770015121 ], [ 459146.042395337135531, 1191843.808848265791312 ], [ 459154.105107458599377, 1191836.170489413896576 ], [ 459159.055895603436511, 1191831.361152358818799 ], [ 459164.431037017784547, 1191825.844559854594991 ], [ 459170.654884971212596, 1191821.601027159020305 ], [ 459177.16163510439219, 1191816.791690104175359 ], [ 459182.112423249171115, 1191813.396863947622478 ], [ 459184.658542866469361, 1191812.123804138973355 ], [ 459193.852863706822973, 1191809.294782342156395 ], [ 459202.057026918162592, 1191806.890113814501092 ], [ 459204.886048715212382, 1191805.899956185603514 ], [ 459217.899548981513362, 1191805.475602915976197 ] ] ] ] } },
{ "type": "Feature", "properties": { "id": 25 }, "geometry": { "type": "MultiPolygon", "coordinates": [ [ [ [ 459130.619274739525281, 1191858.505128938239068 ], [ 459129.957646558294073, 1191849.903962582116947 ], [ 459119.371595658478327, 1191860.15919939125888 ], [ 459109.777987030509394, 1191873.72257710667327 ], [ 459105.146589761832729, 1191880.008044828427956 ], [ 459101.17682067444548, 1191887.947583003202453 ], [ 459130.619274739525281, 1191858.505128938239068 ] ] ] ] } },
{ "type": "Feature", "properties": { "id": 26 }, "geometry": { "type": "MultiPolygon", "coordinates": [ [ [ [ 459073.468351674615405, 1191678.025718464748934 ], [ 459073.928732809203211, 1191676.721305250190198 ], [ 459071.550096947234124, 1191676.184193926630542 ], [ 459069.248191274411511, 1191675.263431657338515 ], [ 459066.10225352155976, 1191673.882288253633305 ], [ 459064.030538416001946, 1191673.345176930073649 ], [ 459062.189013877708931, 1191672.731335417367518 ], [ 459060.731140284915455, 1191672.347684471867979 ], [ 459056.280789317446761, 1191670.58289012266323 ], [ 459052.98139118636027, 1191669.278476908104494 ], [ 459050.295834568038117, 1191668.280984449898824 ], [ 459048.837960975244641, 1191667.897333504399285 ], [ 459045.461832655069884, 1191667.360222180606797 ], [ 459043.236657171335537, 1191666.899841046193615 ], [ 459041.395132633042522, 1191666.362729722401127 ], [ 459039.093226960219909, 1191665.518697642488405 ], [ 459035.870559018221684, 1191664.674665562342852 ], [ 459031.803858996252529, 1191663.140061780577525 ], [ 459027.8906193524017, 1191662.296029700431973 ], [ 459022.826426872168668, 1191660.531235351227224 ], [ 459018.222615526465233, 1191659.303552325814962 ], [ 459017.685504202789161, 1191660.914886296726763 ], [ 459027.353508028725628, 1191663.523712725844234 ], [ 459033.95230429089861, 1191665.672158020548522 ], [ 459038.632845825632103, 1191666.899841046193615 ], [ 459043.006466604070738, 1191668.20425426075235 ], [ 459049.298342109832447, 1191669.58539766445756 ], [ 459054.976376102829818, 1191671.503652391722426 ], [ 459060.654410095827188, 1191673.57536749728024 ], [ 459066.178983710648026, 1191675.340161846484989 ], [ 459068.787810139823705, 1191676.721305250190198 ], [ 459073.468351674615405, 1191678.025718464748934 ] ] ] ] } },
{ "type": "Feature", "properties": { "id": 27 }, "geometry": { "type": "MultiPolygon", "coordinates": [ [ [ [ 459077.228130940231495, 1191681.785497730365023 ], [ 459077.074670562054962, 1191681.632037352304906 ], [ 459079.376576234935783, 1191680.864735461305827 ], [ 459080.680989449494518, 1191679.099941112101078 ], [ 459080.297338504053187, 1191677.335146762896329 ], [ 459078.609274343936704, 1191676.107463737484068 ], [ 459076.997940372966696, 1191675.647082602838054 ], [ 459075.463336591084953, 1191675.723812791984528 ], [ 459074.005462998291478, 1191676.721305250190198 ], [ 459073.314891296438873, 1191679.023210922954604 ], [ 459075.002955456497148, 1191681.171656217658892 ], [ 459077.228130940231495, 1191681.785497730365023 ] ] ] ] } },
{ "type": "Feature", "properties": { "id": 27 }, "geometry": { "type": "MultiPolygon", "coordinates": [ [ [ [ 458885.878919844166376, 1191608.572927306871861 ], [ 458882.563272843079176, 1191602.555642008548602 ], [ 458884.650902436405886, 1191603.538055934710428 ], [ 458886.492928548075724, 1191604.643271601758897 ], [ 458888.457756400573999, 1191604.152064638677984 ], [ 458888.703359882114455, 1191602.678443749202415 ], [ 458887.598144215124194, 1191602.310038527008146 ], [ 458884.773704177176114, 1191600.590814155992121 ], [ 458883.668488510127645, 1191598.625986303668469 ], [ 458882.317669361538719, 1191595.678744524717331 ], [ 458880.721246731409337, 1191595.678744524717331 ], [ 458878.142410175001714, 1191593.099907968426123 ], [ 458880.107238027499989, 1191591.749088819837198 ], [ 458881.580858916859142, 1191591.012278375215828 ], [ 458882.563272843079176, 1191590.152666189707816 ], [ 458887.966549437434878, 1191591.749088819837198 ], [ 458890.790989475382958, 1191593.222709709312767 ], [ 458890.790989475382958, 1191596.169951488031074 ], [ 458890.790989475382958, 1191597.766374118160456 ], [ 458893.738231254159473, 1191595.187537561636418 ], [ 458895.948662588198204, 1191595.924348006490618 ], [ 458896.808274773648009, 1191593.836718413047493 ], [ 458894.720645180379506, 1191591.871890560723841 ], [ 458885.387712881085463, 1191588.187838337151334 ], [ 458879.370427582820412, 1191585.854605262400582 ], [ 458871.63391791365575, 1191582.047751298174262 ], [ 458865.739434356160928, 1191579.591716482536867 ], [ 458860.213356021034997, 1191577.626888629980385 ], [ 458861.441373428853694, 1191587.819433114957064 ], [ 458862.055382132763043, 1191593.71391667239368 ], [ 458865.371029133792035, 1191591.749088819837198 ], [ 458867.581460467888974, 1191590.766674893675372 ], [ 458871.388314432057086, 1191591.871890560723841 ], [ 458871.14271095051663, 1191593.591114931507036 ], [ 458872.493530099105556, 1191594.082321894587949 ], [ 458874.212754470005166, 1191596.169951488031074 ], [ 458873.598745766095817, 1191598.625986303668469 ], [ 458871.14271095051663, 1191599.976805452257395 ], [ 458869.300684838788584, 1191603.046848971629515 ], [ 458870.651503987377509, 1191606.853702935855836 ], [ 458874.949564914684743, 1191613.362195197260007 ], [ 458878.142410175001714, 1191612.379781271098182 ], [ 458881.335255435318686, 1191611.397367344703525 ], [ 458883.668488510127645, 1191610.292151677655056 ], [ 458885.878919844166376, 1191608.572927306871861 ] ] ] ] } },
{ "type": "Feature", "properties": { "id": 28 }, "geometry": { "type": "MultiPolygon", "coordinates": [ [ [ [ 458870.528702246607281, 1191611.151763863163069 ], [ 458870.283098765066825, 1191612.870988234179094 ], [ 458872.002323135966435, 1191614.344609123421833 ], [ 458874.703961433144286, 1191613.362195197260007 ], [ 458872.493530099105556, 1191610.537755159195513 ], [ 458869.669090061157476, 1191604.520469861105084 ], [ 458869.300684838788584, 1191603.169650712516159 ], [ 458867.82706394942943, 1191604.397668120218441 ], [ 458865.985037837701384, 1191604.643271601758897 ], [ 458865.616632615390699, 1191606.239694231888279 ], [ 458867.458658727060538, 1191609.30973775149323 ], [ 458867.82706394942943, 1191608.450125565985218 ], [ 458869.177883098018356, 1191608.450125565985218 ], [ 458870.405900505837053, 1191609.432539492147043 ], [ 458870.405900505837053, 1191610.169349937001243 ], [ 458871.019909209746402, 1191610.4149534185417 ], [ 458871.019909209746402, 1191611.397367344703525 ], [ 458870.528702246607281, 1191611.151763863163069 ] ] ] ] } },
{ "type": "Feature", "properties": { "id": 29 }, "geometry": { "type": "MultiPolygon", "coordinates": [ [ [ [ 458893.836062018061057, 1191645.533559652743861 ], [ 458893.554598178714514, 1191647.222342688823119 ], [ 458891.7250832230784, 1191649.333321483572945 ], [ 458893.554598178714514, 1191648.911125724669546 ], [ 458896.36923657200532, 1191647.926002287073061 ], [ 458900.309730322565883, 1191646.940878849476576 ], [ 458903.405832555203233, 1191645.392827733187005 ], [ 458904.250224073184654, 1191643.281848938204348 ], [ 458905.376079430454411, 1191641.452333982568234 ], [ 458903.687296394491568, 1191638.778427508892491 ], [ 458902.842904876510147, 1191637.511840231949463 ], [ 458901.435585679893848, 1191636.104521035216749 ], [ 458900.16899840295082, 1191635.68232527631335 ], [ 458900.16899840295082, 1191633.993542240234092 ], [ 458900.309730322565883, 1191631.601099606137723 ], [ 458900.16899840295082, 1191630.756708088098094 ], [ 458898.620947286603041, 1191629.490120811155066 ], [ 458896.650700411351863, 1191627.519873935729265 ], [ 458896.228504652332049, 1191625.690358980093151 ], [ 458894.821185455715749, 1191624.001575944246724 ], [ 458893.273134339426178, 1191625.408895140746608 ], [ 458891.584351303463336, 1191627.097678176825866 ], [ 458891.302887464116793, 1191629.490120811155066 ], [ 458892.850938580406364, 1191630.193780409405008 ], [ 458894.398989696695935, 1191631.31963576679118 ], [ 458894.1175258574076, 1191633.430614561773837 ], [ 458893.413866259041242, 1191635.119397597620264 ], [ 458894.821185455715749, 1191637.089644472813234 ], [ 458893.836062018061057, 1191645.533559652743861 ] ] ] ] } },
{ "type": "Feature", "properties": { "id": 30 }, "geometry": { "type": "MultiPolygon", "coordinates": [ [ [ [ 458893.554598178714514, 1191644.970631974050775 ], [ 458894.680453536042478, 1191637.089644472813234 ], [ 458894.1175258574076, 1191636.385984874563292 ], [ 458893.554598178714514, 1191635.26012951740995 ], [ 458893.554598178714514, 1191634.556469918927178 ], [ 458894.258257777022664, 1191633.571346481330693 ], [ 458894.258257777022664, 1191631.178903847001493 ], [ 458892.991670500079636, 1191630.334512328961864 ], [ 458891.584351303463336, 1191629.771584650501609 ], [ 458891.162155544443522, 1191632.726954963291064 ], [ 458889.614104428153951, 1191634.275006079580635 ], [ 458891.443619383790065, 1191640.326478625182062 ], [ 458893.554598178714514, 1191644.970631974050775 ] ] ] ] } },
{ "type": "Feature", "properties": { "id": 20 }, "geometry": { "type": "MultiPolygon", "coordinates": [ [ [ [ 458896.21564213646343, 1191593.191228870535269 ], [ 458896.57495824911166, 1191593.563854668755084 ], [ 458897.384621568256989, 1191593.190163906197995 ], [ 458900.436429463617969, 1191591.508555473992601 ], [ 458904.173337090585846, 1191589.702383454190567 ], [ 458907.349708573485259, 1191587.896211434621364 ], [ 458912.020843107195105, 1191585.218094301875681 ], [ 458916.069159703038167, 1191583.225076900795102 ], [ 458917.688486341387033, 1191582.851386138238013 ], [ 458920.927139618084766, 1191581.543468468822539 ], [ 458923.107002400502097, 1191580.484677974367514 ], [ 458925.535992357996292, 1191579.92414183029905 ], [ 458927.840418727952056, 1191579.737296449020505 ], [ 458929.27289998496417, 1191579.42588748014532 ], [ 458930.829944829514716, 1191579.55045106774196 ], [ 458933.694907343538944, 1191579.92414183029905 ], [ 458935.065106806752738, 1191580.29783259308897 ], [ 458936.871278826438356, 1191581.294341293629259 ], [ 458938.17919649585383, 1191581.979441025294363 ], [ 458939.113423402595799, 1191578.989914923673496 ], [ 458933.881752724875696, 1191576.623206760035828 ], [ 458928.225804598128889, 1191575.668194844154641 ], [ 458926.148606035741977, 1191575.827979348832741 ], [ 458921.781162904517259, 1191577.319301393581554 ], [ 458917.786550284537952, 1191578.810623438563198 ], [ 458914.377814182080328, 1191580.035637975204736 ], [ 458911.501693095720839, 1191580.941083502490073 ], [ 458907.66686498047784, 1191582.485667048953474 ], [ 458904.258128878078423, 1191584.562865611398593 ], [ 458902.021145810896996, 1191586.000926154432818 ], [ 458900.742869772482663, 1191587.332463694503531 ], [ 458898.825455714890268, 1191588.5574782313779 ], [ 458897.227610666828696, 1191589.090093247359619 ], [ 458894.031920570821967, 1191591.380337816197425 ], [ 458894.724320091656409, 1191591.646645324071869 ], [ 458896.21564213646343, 1191593.191228870535269 ] ] ] ] } },
{ "type": "Feature", "properties": { "id": 21 }, "geometry": { "type": "MultiPolygon", "coordinates": [ [ [ [ 458938.242917352588847, 1191582.095204070210457 ], [ 458958.574824503331911, 1191585.411756300367415 ], [ 458960.665694387629628, 1191586.060646954225376 ], [ 458963.910147656337358, 1191586.709537607850507 ], [ 458967.515095732698683, 1191587.286329300142825 ], [ 458969.6059656169964, 1191587.935219953767955 ], [ 458970.399054193811025, 1191588.512011646060273 ], [ 458971.264241732133087, 1191588.367813722928986 ], [ 458972.706220962689258, 1191589.016704376786947 ], [ 458973.571408501011319, 1191588.65620956919156 ], [ 458975.301783577655442, 1191588.944605415221304 ], [ 458978.474137884855736, 1191589.737693991977721 ], [ 458980.492908807646018, 1191589.809792953543365 ], [ 458982.079085961275268, 1191590.458683607168496 ], [ 458983.665263114846312, 1191591.395970107056201 ], [ 458986.76551846053917, 1191592.116959722479805 ], [ 458987.702804960426874, 1191589.521397107513621 ], [ 458985.467737153056078, 1191589.088803338352591 ], [ 458984.242054807080422, 1191588.65620956919156 ], [ 458980.420809846138582, 1191587.286329300142825 ], [ 458977.897346192679834, 1191586.709537607850507 ], [ 458975.878575269889552, 1191586.34904280025512 ], [ 458973.066715770342853, 1191585.772251107962802 ], [ 458969.750163540069479, 1191585.267558377236128 ], [ 458967.515095732698683, 1191584.618667723610997 ], [ 458964.559038310078904, 1191584.041876031318679 ], [ 458962.179772579693235, 1191583.825579146854579 ], [ 458959.223715157073457, 1191582.960391608532518 ], [ 458957.060746311210096, 1191582.311500954674557 ], [ 458953.455798234848771, 1191581.95100614707917 ], [ 458950.788136658316944, 1191581.446313416352496 ], [ 458948.408870927931275, 1191582.16730303154327 ], [ 458945.957506235979963, 1191581.806808223947883 ], [ 458943.65033946710173, 1191580.869521724060178 ], [ 458940.766381006047595, 1191580.148532108869404 ], [ 458939.108104890910909, 1191578.922849762951955 ], [ 458938.242917352588847, 1191582.095204070210457 ] ] ] ] } },
{ "type": "Feature", "properties": { "id": 22 }, "geometry": { "type": "MultiPolygon", "coordinates": [ [ [ [ 458986.922883630672004, 1191592.026583182625473 ], [ 458997.160936167521868, 1191594.586096316808835 ], [ 458997.845876302046236, 1191594.586096316808835 ], [ 458999.972795667068567, 1191594.874492163071409 ], [ 459002.316011916729622, 1191595.595481778262183 ], [ 459004.983673493203241, 1191596.064125028206035 ], [ 459008.444423646549694, 1191596.532768278149888 ], [ 459009.814303915540222, 1191596.78511464339681 ], [ 459010.679491453862283, 1191597.470054778037593 ], [ 459012.157520165201277, 1191597.686351662501693 ], [ 459012.986658222740516, 1191597.938698027981445 ], [ 459013.707647838047706, 1191595.883877624291927 ], [ 459011.003936780733056, 1191595.018690085969865 ], [ 459009.021215338725597, 1191594.874492163071409 ], [ 459006.497751685325056, 1191594.08140358608216 ], [ 459003.325397378124762, 1191593.324364490108564 ], [ 459000.729834763100371, 1191592.711523317266256 ], [ 458998.927360724948812, 1191592.278929548105225 ], [ 458996.872540321433917, 1191591.55793993268162 ], [ 458994.132779783394653, 1191591.125346163520589 ], [ 458992.979196398926433, 1191590.260158625198528 ], [ 458990.23943586088717, 1191589.863614336820319 ], [ 458987.752021688211244, 1191589.539169010007754 ], [ 458986.922883630672004, 1191592.026583182625473 ] ] ] ] } },
{ "type": "Feature", "properties": { "id": 24 }, "geometry": { "type": "MultiPolygon", "coordinates": [ [ [ [ 459013.075762439635582, 1191597.93864537216723 ], [ 459036.406530431879219, 1191604.305807154858485 ], [ 459037.475470001227222, 1191604.352282788371667 ], [ 459040.356959275202826, 1191605.188844190444797 ], [ 459042.587789680808783, 1191605.793027425184846 ], [ 459044.028534317796584, 1191606.722540094284341 ], [ 459047.281828659353778, 1191606.815491361077875 ], [ 459048.862000196648296, 1191606.722540094284341 ], [ 459049.047902730468195, 1191605.142368556931615 ], [ 459047.560682460025419, 1191604.445234055165201 ], [ 459045.562230221694335, 1191603.562197019578889 ], [ 459042.680740947718732, 1191602.911538151325658 ], [ 459040.171056741382927, 1191602.493257450172678 ], [ 459037.707848168502096, 1191601.796122948406264 ], [ 459032.874382289650384, 1191600.355378311593086 ], [ 459025.577707837859634, 1191598.403401706600562 ], [ 459013.81937257485697, 1191595.707814966328442 ], [ 459013.075762439635582, 1191597.93864537216723 ] ] ] ] } }
]
}
